{
    "links": {
        "self": "http://www.neowsapp.com/rest/v1/neo/3714460?api_key=iIulBulltgU6a56xZRHN4H3l9WmuAYTsLGpBGhQ2"
    },
    "id": "3714460",
    "neo_reference_id": "3714460",
    "name": "(2015 FY117)",
    "designation": "2015 FY117",
    "nasa_jpl_url": "http://ssd.jpl.nasa.gov/sbdb.cgi?sstr=3714460",
    "absolute_magnitude_h": 21.3,
    "estimated_diameter": {
        "kilometers": {
            "estimated_diameter_min": 0.1460679643,
            "estimated_diameter_max": 0.3266178974
        },
        "meters": {
            "estimated_diameter_min": 146.0679642714,
            "estimated_diameter_max": 326.6178974458
        },
        "miles": {
            "estimated_diameter_min": 0.090762397,
            "estimated_diameter_max": 0.2029508896
        },
        "feet": {
            "estimated_diameter_min": 479.2256199,
            "estimated_diameter_max": 1071.581062656
        }
    },
    "is_potentially_hazardous_asteroid": false,
    "close_approach_data": [
        {
            "close_approach_date": "1995-03-27",
            "close_approach_date_full": "1995-Mar-27 22:53",
            "epoch_date_close_approach": 796344780000,
            "relative_velocity": {
                "kilometers_per_second": "13.8088023603",
                "kilometers_per_hour": "49711.6884971761",
                "miles_per_hour": "30888.9099998148"
            },
            "miss_distance": {
                "astronomical": "0.1436714853",
                "lunar": "55.8882077817",
                "kilometers": "21492948.180616311",
                "miles": "13355098.7152786518"
            },
            "orbiting_body": "Earth"
        },
        {
            "close_approach_date": "2015-04-09",
            "close_approach_date_full": "2015-Apr-09 11:17",
            "epoch_date_close_approach": 1428578220000,
            "relative_velocity": {
                "kilometers_per_second": "18.1979866123",
                "kilometers_per_hour": "65512.7518041727",
                "miles_per_hour": "40707.0762529872"
            },
            "miss_distance": {
                "astronomical": "0.4503238102",
                "lunar": "175.1759621678",
                "kilometers": "67367482.816204274",
                "miles": "41860212.7381320212"
            },
            "orbiting_body": "Earth"
        },
        {
            "close_approach_date": "2018-03-17",
            "close_approach_date_full": "2018-Mar-17 20:14",
            "epoch_date_close_approach": 1521317640000,
            "relative_velocity": {
                "kilometers_per_second": "16.248084186",
                "kilometers_per_hour": "58493.1030696659",
                "miles_per_hour": "36345.3395157043"
            },
            "miss_distance": {
                "astronomical": "0.4568680714",
                "lunar": "177.7216797746",
                "kilometers": "68346490.352447918",
                "miles": "42468539.8126525484"
            },
            "orbiting_body": "Earth"
        },
        {
            "close_approach_date": "2038-03-27",
            "close_approach_date_full": "2038-Mar-27 19:41",
            "epoch_date_close_approach": 2153331660000,
            "relative_velocity": {
                "kilometers_per_second": "13.8165610446",
                "kilometers_per_hour": "49739.6197607209",
                "miles_per_hour": "30906.2654007657"
            },
            "miss_distance": {
                "astronomical": "0.1454095905",
                "lunar": "56.5643307045",
                "kilometers": "21752965.016372235",
                "miles": "13516665.685057443"
            },
            "orbiting_body": "Earth"
        }
    ],
    "orbital_data": {
        "orbit_id": "15",
        "orbit_determination_date": "2017-04-06 08:34:47",
        "first_observation_date": "2015-03-20",
        "last_observation_date": "2015-05-13",
        "data_arc_in_days": 54,
        "observations_used": 76,
        "orbit_uncertainty": "6",
        "minimum_orbit_intersection": ".149246",
        "jupiter_tisserand_invariant": "3.601",
        "epoch_osculation": "2459000.5",
        "eccentricity": ".4343082901855343",
        "semi_major_axis": "2.018264828637987",
        "inclination": "24.31563712376718",
        "ascending_node_longitude": "188.3013192154646",
        "orbital_period": "1047.286860733268",
        "perihelion_distance": "1.141715681770622",
        "perihelion_argument": "348.4337491414867",
        "aphelion_distance": "2.894813975505351",
        "perihelion_time": "2459217.921910334790",
        "mean_anomaly": "285.262226945422",
        "mean_motion": ".3437453609872873",
        "equinox": "J2000",
        "orbit_class": {
            "orbit_class_type": "AMO",
            "orbit_class_description": "Near-Earth asteroid orbits similar to that of 1221 Amor",
            "orbit_class_range": "1.017 AU < q (perihelion) < 1.3 AU"
        }
    },
    "is_sentry_object": false
}